DELTA 2 R/B(1)          
1 20453U 90008B   25344.16633920  .00053574  00000+0  86573-3 0  9994
2 20453  35.6070  37.1486 0111585 155.1071 205.5097 15.44904135912238
COSMOS 2058             
1 20465U 90010A   25344.17430176  .00007090  00000+0  42936-3 0  9996
2 20465  82.4658 135.5538 0008251 283.9938  76.0374 15.10428884928726
SL-14 R/B               
1 20466U 90010B   25344.11484688  .00000694  00000+0  81442-4 0  9997
2 20466  82.5019 351.5125 0018558 232.3302 127.6231 14.83467363915203
SL-14 R/B               
1 20511U 90018B   25344.18159422  .00000818  00000+0  99931-4 0  9998
2 20511  82.5208 306.7556 0017217  31.4420 328.7820 14.82042172909324
HST                     
1 20580U 90037B   25344.17960442  .00010729  00000+0  37347-3 0  9990
2 20580  28.4692 289.9149 0001836 207.5620 152.4878 15.27993349759604
SL-16 R/B               
1 20625U 90046B   25344.13029080  .00000026  00000+0  38072-4 0  9996
2 20625  70.9988 126.0012 0011836  78.0865 282.1584 14.15001197835727
COSMOS 2084             
1 20663U 90055A   25344.17609385  .00004487  00000+0  32532-3 0  9993
2 20663  62.7910 280.7284 0032143 174.3944 185.7523 15.04992230922841
SL-6 R/B(2)             
1 20666U 90055D   25343.97312677  .00002685  00000+0  21250-3 0  9991
2 20666  62.7823 198.8165 0012448 306.7326  53.2629 15.03055795924703
SL-8 R/B                
1 20775U 90078B   25344.03745058  .00029989  00000+0  92837-3 0  9993
2 20775  82.9049 331.7289 0372949 315.0135  42.1412 14.85766914795972
SL-8 R/B                
1 21088U 91006B   25344.15433882  .00000090  00000+0  75299-4 0  9991
2 21088  82.9431 236.6358 0021313 287.4999 225.0862 13.77489600751743
OKEAN-3                 
1 21397U 91039A   25344.15416764  .00004611  00000+0  33061-3 0  9993
2 21397  82.5166  63.5497 0012823 276.1016  83.8749 15.04088620851574
COSMOS 2151             
1 21422U 91042A   25344.08775896  .00002476  00000+0  19849-3 0  9997
2 21422  82.4961 170.0591 0012768   8.5500 351.5938 14.99671483849768
