CCSDS_OMM_VERS = 2.0
CREATION_DATE  = 
ORIGINATOR     = 

OBJECT_NAME    = DELTA 2 R/B(1)
OBJECT_ID      = 1990-008B
CENTER_NAME    = EARTH
REF_FRAME      = TEME
TIME_SYSTEM    = UTC
MEAN_ELEMENT_THEORY = SGP/SGP4

EPOCH          = 2025-12-10T03:59:31.706880
MEAN_MOTION    = 15.44904135
ECCENTRICITY   = .0111585
INCLINATION    = 35.6070
RA_OF_ASC_NODE = 37.1486
ARG_OF_PERICENTER = 155.1071
MEAN_ANOMALY   = 205.5097

EPHEMERIS_TYPE = 0
CLASSIFICATION_TYPE = U
NORAD_CAT_ID   = 20453
ELEMENT_SET_NO = 999
REV_AT_EPOCH   = 91223
BSTAR          = .86573E-3
MEAN_MOTION_DOT = .53574E-3
MEAN_MOTION_DDOT = 0

CCSDS_OMM_VERS = 2.0
CREATION_DATE  = 
ORIGINATOR     = 

OBJECT_NAME    = COSMOS 2058
OBJECT_ID      = 1990-010A
CENTER_NAME    = EARTH
REF_FRAME      = TEME
TIME_SYSTEM    = UTC
MEAN_ELEMENT_THEORY = SGP/SGP4

EPOCH          = 2025-12-10T04:10:59.672064
MEAN_MOTION    = 15.10428884
ECCENTRICITY   = .0008251
INCLINATION    = 82.4658
RA_OF_ASC_NODE = 135.5538
ARG_OF_PERICENTER = 283.9938
MEAN_ANOMALY   = 76.0374

EPHEMERIS_TYPE = 0
CLASSIFICATION_TYPE = U
NORAD_CAT_ID   = 20465
ELEMENT_SET_NO = 999
REV_AT_EPOCH   = 92872
BSTAR          = .42936E-3
MEAN_MOTION_DOT = .709E-4
MEAN_MOTION_DDOT = 0

CCSDS_OMM_VERS = 2.0
CREATION_DATE  = 
ORIGINATOR     = 

OBJECT_NAME    = SL-14 R/B
OBJECT_ID      = 1990-010B
CENTER_NAME    = EARTH
REF_FRAME      = TEME
TIME_SYSTEM    = UTC
MEAN_ELEMENT_THEORY = SGP/SGP4

EPOCH          = 2025-12-10T02:45:22.770432
MEAN_MOTION    = 14.83467363
ECCENTRICITY   = .0018558
INCLINATION    = 82.5019
RA_OF_ASC_NODE = 351.5125
ARG_OF_PERICENTER = 232.3302
MEAN_ANOMALY   = 127.6231

EPHEMERIS_TYPE = 0
CLASSIFICATION_TYPE = U
NORAD_CAT_ID   = 20466
ELEMENT_SET_NO = 999
REV_AT_EPOCH   = 91520
BSTAR          = .81442E-4
MEAN_MOTION_DOT = .694E-5
MEAN_MOTION_DDOT = 0

CCSDS_OMM_VERS = 2.0
CREATION_DATE  = 
ORIGINATOR     = 

OBJECT_NAME    = SL-14 R/B
OBJECT_ID      = 1990-018B
CENTER_NAME    = EARTH
REF_FRAME      = TEME
TIME_SYSTEM    = UTC
MEAN_ELEMENT_THEORY = SGP/SGP4

EPOCH          = 2025-12-10T04:21:29.740608
MEAN_MOTION    = 14.82042172
ECCENTRICITY   = .0017217
INCLINATION    = 82.5208
RA_OF_ASC_NODE = 306.7556
ARG_OF_PERICENTER = 31.4420
MEAN_ANOMALY   = 328.7820

EPHEMERIS_TYPE = 0
CLASSIFICATION_TYPE = U
NORAD_CAT_ID   = 20511
ELEMENT_SET_NO = 999
REV_AT_EPOCH   = 90932
BSTAR          = .99931E-4
MEAN_MOTION_DOT = .818E-5
MEAN_MOTION_DDOT = 0

CCSDS_OMM_VERS = 2.0
CREATION_DATE  = 
ORIGINATOR     = 

OBJECT_NAME    = HST
OBJECT_ID      = 1990-037B
CENTER_NAME    = EARTH
REF_FRAME      = TEME
TIME_SYSTEM    = UTC
MEAN_ELEMENT_THEORY = SGP/SGP4

EPOCH          = 2025-12-10T04:18:37.821888
MEAN_MOTION    = 15.27993349
ECCENTRICITY   = .0001836
INCLINATION    = 28.4692
RA_OF_ASC_NODE = 289.9149
ARG_OF_PERICENTER = 207.5620
MEAN_ANOMALY   = 152.4878

EPHEMERIS_TYPE = 0
CLASSIFICATION_TYPE = U
NORAD_CAT_ID   = 20580
ELEMENT_SET_NO = 999
REV_AT_EPOCH   = 75960
BSTAR          = .37347E-3
MEAN_MOTION_DOT = .10729E-3
MEAN_MOTION_DDOT = 0

CCSDS_OMM_VERS = 2.0
CREATION_DATE  = 
ORIGINATOR     = 

OBJECT_NAME    = SL-16 R/B
OBJECT_ID      = 1990-046B
CENTER_NAME    = EARTH
REF_FRAME      = TEME
TIME_SYSTEM    = UTC
MEAN_ELEMENT_THEORY = SGP/SGP4

EPOCH          = 2025-12-10T03:07:37.125120
MEAN_MOTION    = 14.15001197
ECCENTRICITY   = .0011836
INCLINATION    = 70.9988
RA_OF_ASC_NODE = 126.0012
ARG_OF_PERICENTER = 78.0865
MEAN_ANOMALY   = 282.1584

EPHEMERIS_TYPE = 0
CLASSIFICATION_TYPE = U
NORAD_CAT_ID   = 20625
ELEMENT_SET_NO = 999
REV_AT_EPOCH   = 83572
BSTAR          = .38072E-4
MEAN_MOTION_DOT = .26E-6
MEAN_MOTION_DDOT = 0

CCSDS_OMM_VERS = 2.0
CREATION_DATE  = 
ORIGINATOR     = 

OBJECT_NAME    = COSMOS 2084
OBJECT_ID      = 1990-055A
CENTER_NAME    = EARTH
REF_FRAME      = TEME
TIME_SYSTEM    = UTC
MEAN_ELEMENT_THEORY = SGP/SGP4

EPOCH          = 2025-12-10T04:13:34.508640
MEAN_MOTION    = 15.04992230
ECCENTRICITY   = .0032143
INCLINATION    = 62.7910
RA_OF_ASC_NODE = 280.7284
ARG_OF_PERICENTER = 174.3944
MEAN_ANOMALY   = 185.7523

EPHEMERIS_TYPE = 0
CLASSIFICATION_TYPE = U
NORAD_CAT_ID   = 20663
ELEMENT_SET_NO = 999
REV_AT_EPOCH   = 92284
BSTAR          = .32532E-3
MEAN_MOTION_DOT = .4487E-4
MEAN_MOTION_DDOT = 0

CCSDS_OMM_VERS = 2.0
CREATION_DATE  = 
ORIGINATOR     = 

OBJECT_NAME    = SL-6 R/B(2)
OBJECT_ID      = 1990-055D
CENTER_NAME    = EARTH
REF_FRAME      = TEME
TIME_SYSTEM    = UTC
MEAN_ELEMENT_THEORY = SGP/SGP4

EPOCH          = 2025-12-09T23:21:18.152928
MEAN_MOTION    = 15.03055795
ECCENTRICITY   = .0012448
INCLINATION    = 62.7823
RA_OF_ASC_NODE = 198.8165
ARG_OF_PERICENTER = 306.7326
MEAN_ANOMALY   = 53.2629

EPHEMERIS_TYPE = 0
CLASSIFICATION_TYPE = U
NORAD_CAT_ID   = 20666
ELEMENT_SET_NO = 999
REV_AT_EPOCH   = 92470
BSTAR          = .2125E-3
MEAN_MOTION_DOT = .2685E-4
MEAN_MOTION_DDOT = 0

CCSDS_OMM_VERS = 2.0
CREATION_DATE  = 
ORIGINATOR     = 

OBJECT_NAME    = SL-8 R/B
OBJECT_ID      = 1990-078B
CENTER_NAME    = EARTH
REF_FRAME      = TEME
TIME_SYSTEM    = UTC
MEAN_ELEMENT_THEORY = SGP/SGP4

EPOCH          = 2025-12-10T00:53:55.730112
MEAN_MOTION    = 14.85766914
ECCENTRICITY   = .0372949
INCLINATION    = 82.9049
RA_OF_ASC_NODE = 331.7289
ARG_OF_PERICENTER = 315.0135
MEAN_ANOMALY   = 42.1412

EPHEMERIS_TYPE = 0
CLASSIFICATION_TYPE = U
NORAD_CAT_ID   = 20775
ELEMENT_SET_NO = 999
REV_AT_EPOCH   = 79597
BSTAR          = .92837E-3
MEAN_MOTION_DOT = .29989E-3
MEAN_MOTION_DDOT = 0

CCSDS_OMM_VERS = 2.0
CREATION_DATE  = 
ORIGINATOR     = 

OBJECT_NAME    = SL-8 R/B
OBJECT_ID      = 1991-006B
CENTER_NAME    = EARTH
REF_FRAME      = TEME
TIME_SYSTEM    = UTC
MEAN_ELEMENT_THEORY = SGP/SGP4

EPOCH          = 2025-12-10T03:42:14.874048
MEAN_MOTION    = 13.77489600
ECCENTRICITY   = .0021313
INCLINATION    = 82.9431
RA_OF_ASC_NODE = 236.6358
ARG_OF_PERICENTER = 287.4999
MEAN_ANOMALY   = 225.0862

EPHEMERIS_TYPE = 0
CLASSIFICATION_TYPE = U
NORAD_CAT_ID   = 21088
ELEMENT_SET_NO = 999
REV_AT_EPOCH   = 75174
BSTAR          = .75299E-4
MEAN_MOTION_DOT = .9E-6
MEAN_MOTION_DDOT = 0

CCSDS_OMM_VERS = 2.0
CREATION_DATE  = 
ORIGINATOR     = 

OBJECT_NAME    = OKEAN-3
OBJECT_ID      = 1991-039A
CENTER_NAME    = EARTH
REF_FRAME      = TEME
TIME_SYSTEM    = UTC
MEAN_ELEMENT_THEORY = SGP/SGP4

EPOCH          = 2025-12-10T03:42:00.084096
MEAN_MOTION    = 15.04088620
ECCENTRICITY   = .0012823
INCLINATION    = 82.5166
RA_OF_ASC_NODE = 63.5497
ARG_OF_PERICENTER = 276.1016
MEAN_ANOMALY   = 83.8749

EPHEMERIS_TYPE = 0
CLASSIFICATION_TYPE = U
NORAD_CAT_ID   = 21397
ELEMENT_SET_NO = 999
REV_AT_EPOCH   = 85157
BSTAR          = .33061E-3
MEAN_MOTION_DOT = .4611E-4
MEAN_MOTION_DDOT = 0

CCSDS_OMM_VERS = 2.0
CREATION_DATE  = 
ORIGINATOR     = 

OBJECT_NAME    = COSMOS 2151
OBJECT_ID      = 1991-042A
CENTER_NAME    = EARTH
REF_FRAME      = TEME
TIME_SYSTEM    = UTC
MEAN_ELEMENT_THEORY = SGP/SGP4

EPOCH          = 2025-12-10T02:06:22.374144
MEAN_MOTION    = 14.99671483
ECCENTRICITY   = .0012768
INCLINATION    = 82.4961
RA_OF_ASC_NODE = 170.0591
ARG_OF_PERICENTER = 8.5500
MEAN_ANOMALY   = 351.5938

EPHEMERIS_TYPE = 0
CLASSIFICATION_TYPE = U
NORAD_CAT_ID   = 21422
ELEMENT_SET_NO = 999
REV_AT_EPOCH   = 84976
BSTAR          = .19849E-3
MEAN_MOTION_DOT = .2476E-4
MEAN_MOTION_DDOT = 0

